{
 "generated_at": "2026-06-22T10:39:18Z",
 "sources": [
  {
   "name": "CelesTrak",
   "url": "https://celestrak.org/NORAD/elements/",
   "license": "frei verfügbar; Attribution. Ursprünglich USSPACECOM/Space-Track."
  },
  {
   "name": "GCAT (J. McDowell, planet4589.org)",
   "url": "https://planet4589.org/space/gcat/",
   "license": "CC-BY 4.0"
  }
 ],
 "satellites": [
  {
   "norad": 41752,
   "name": "INSAT-3DR",
   "intl": "2016-054A",
   "group": "weather",
   "gcat": {
    "class": "C",
    "category": "MET",
    "owner": "ISRO",
    "state": "IN"
   },
   "omm": {
    "OBJECT_NAME": "INSAT-3DR",
    "OBJECT_ID": "2016-054A",
    "EPOCH": "2026-06-20T09:45:36.464256",
    "MEAN_MOTION": 1.002713,
    "ECCENTRICITY": 0.0010425,
    "INCLINATION": 0.1148,
    "RA_OF_ASC_NODE": 86.2468,
    "ARG_OF_PERICENTER": 187.4441,
    "MEAN_ANOMALY": 215.292,
    "EPHEMERIS_TYPE": 0,
    "CLASSIFICATION_TYPE": "U",
    "NORAD_CAT_ID": 41752,
    "ELEMENT_SET_NO": 999,
    "REV_AT_EPOCH": 3585,
    "BSTAR": 0,
    "MEAN_MOTION_DOT": -8.1e-7,
    "MEAN_MOTION_DDOT": 0
   }
  },
  {
   "norad": 58990,
   "name": "INSAT-3DS",
   "intl": "2024-033A",
   "group": "weather",
   "gcat": {
    "class": "C",
    "category": "MET",
    "owner": "ISRO",
    "state": "IN"
   },
   "omm": {
    "OBJECT_NAME": "INSAT-3DS",
    "OBJECT_ID": "2024-033A",
    "EPOCH": "2026-06-20T09:47:51.249120",
    "MEAN_MOTION": 1.00271082,
    "ECCENTRICITY": 0.0001171,
    "INCLINATION": 0.0479,
    "RA_OF_ASC_NODE": 106.3313,
    "ARG_OF_PERICENTER": 331.3573,
    "MEAN_ANOMALY": 59.9873,
    "EPHEMERIS_TYPE": 0,
    "CLASSIFICATION_TYPE": "U",
    "NORAD_CAT_ID": 58990,
    "ELEMENT_SET_NO": 999,
    "REV_AT_EPOCH": 4710,
    "BSTAR": 0,
    "MEAN_MOTION_DOT": -0.0000016,
    "MEAN_MOTION_DDOT": 0
   }
  },
  {
   "norad": 61735,
   "name": "IONOSFERA-M 1",
   "intl": "2024-199A",
   "group": "resource",
   "gcat": {
    "class": "C",
    "category": "SCI",
    "owner": "VNIIEMI",
    "state": "RU"
   },
   "omm": {
    "OBJECT_NAME": "IONOSFERA-M 1",
    "OBJECT_ID": "2024-199A",
    "EPOCH": "2026-06-20T10:17:26.935008",
    "MEAN_MOTION": 14.22754851,
    "ECCENTRICITY": 0.0002042,
    "INCLINATION": 98.717,
    "RA_OF_ASC_NODE": 44.5668,
    "ARG_OF_PERICENTER": 106.2287,
    "MEAN_ANOMALY": 253.9115,
    "EPHEMERIS_TYPE": 0,
    "CLASSIFICATION_TYPE": "U",
    "NORAD_CAT_ID": 61735,
    "ELEMENT_SET_NO": 999,
    "REV_AT_EPOCH": 12816,
    "BSTAR": 0.000029904,
    "MEAN_MOTION_DOT": 2.3e-7,
    "MEAN_MOTION_DDOT": 0
   }
  },
  {
   "norad": 61736,
   "name": "IONOSFERA-M 2",
   "intl": "2024-199B",
   "group": "resource",
   "gcat": {
    "class": "C",
    "category": "SCI",
    "owner": "VNIIEMI",
    "state": "RU"
   },
   "omm": {
    "OBJECT_NAME": "IONOSFERA-M 2",
    "OBJECT_ID": "2024-199B",
    "EPOCH": "2026-06-20T09:25:33.204288",
    "MEAN_MOTION": 14.22758106,
    "ECCENTRICITY": 0.0000914,
    "INCLINATION": 98.7169,
    "RA_OF_ASC_NODE": 44.4417,
    "ARG_OF_PERICENTER": 38.0352,
    "MEAN_ANOMALY": 322.089,
    "EPHEMERIS_TYPE": 0,
    "CLASSIFICATION_TYPE": "U",
    "NORAD_CAT_ID": 61736,
    "ELEMENT_SET_NO": 999,
    "REV_AT_EPOCH": 13128,
    "BSTAR": 0.000030228,
    "MEAN_MOTION_DOT": 2.4e-7,
    "MEAN_MOTION_DDOT": 0
   }
  },
  {
   "norad": 64876,
   "name": "IONOSFERA-M 3",
   "intl": "2025-155A",
   "group": "resource",
   "gcat": {
    "class": "C",
    "category": "SCI",
    "owner": "VNIIEMI",
    "state": "RU"
   },
   "omm": {
    "OBJECT_NAME": "IONOSFERA-M 3",
    "OBJECT_ID": "2025-155A",
    "EPOCH": "2026-06-21T11:15:34.063200",
    "MEAN_MOTION": 14.21487012,
    "ECCENTRICITY": 0.0001275,
    "INCLINATION": 98.6033,
    "RA_OF_ASC_NODE": 134.2664,
    "ARG_OF_PERICENTER": 149.5064,
    "MEAN_ANOMALY": 210.6188,
    "EPHEMERIS_TYPE": 0,
    "CLASSIFICATION_TYPE": "U",
    "NORAD_CAT_ID": 64876,
    "ELEMENT_SET_NO": 999,
    "REV_AT_EPOCH": 4701,
    "BSTAR": 0.000028665,
    "MEAN_MOTION_DOT": 2e-7,
    "MEAN_MOTION_DDOT": 0
   }
  },
  {
   "norad": 64877,
   "name": "IONOSFERA-M 4",
   "intl": "2025-155B",
   "group": "resource",
   "gcat": {
    "class": "C",
    "category": "SCI",
    "owner": "VNIIEMI",
    "state": "RU"
   },
   "omm": {
    "OBJECT_NAME": "IONOSFERA-M 4",
    "OBJECT_ID": "2025-155B",
    "EPOCH": "2026-06-21T12:05:43.784736",
    "MEAN_MOTION": 14.21489319,
    "ECCENTRICITY": 0.0001208,
    "INCLINATION": 98.6032,
    "RA_OF_ASC_NODE": 134.2177,
    "ARG_OF_PERICENTER": 118.6135,
    "MEAN_ANOMALY": 241.5164,
    "EPHEMERIS_TYPE": 0,
    "CLASSIFICATION_TYPE": "U",
    "NORAD_CAT_ID": 64877,
    "ELEMENT_SET_NO": 999,
    "REV_AT_EPOCH": 4701,
    "BSTAR": 0.00003749,
    "MEAN_MOTION_DOT": 3.9e-7,
    "MEAN_MOTION_DDOT": 0
   }
  },
  {
   "norad": 28649,
   "name": "IRS-P5 (CARTOSAT-1)",
   "intl": "2005-017A",
   "group": "resource",
   "gcat": {
    "class": null,
    "category": null,
    "owner": null,
    "state": null
   },
   "omm": {
    "OBJECT_NAME": "IRS-P5 (CARTOSAT-1)",
    "OBJECT_ID": "2005-017A",
    "EPOCH": "2026-06-20T00:44:44.141280",
    "MEAN_MOTION": 14.91055438,
    "ECCENTRICITY": 0.00025258,
    "INCLINATION": 97.5305,
    "RA_OF_ASC_NODE": 193.9666,
    "ARG_OF_PERICENTER": 76.4954,
    "MEAN_ANOMALY": 283.6546,
    "EPHEMERIS_TYPE": 0,
    "CLASSIFICATION_TYPE": "U",
    "NORAD_CAT_ID": 28649,
    "ELEMENT_SET_NO": 999,
    "REV_AT_EPOCH": 14424,
    "BSTAR": 0.00010255078,
    "MEAN_MOTION_DOT": 0.00000963,
    "MEAN_MOTION_DDOT": 0
   }
  },
  {
   "norad": 41240,
   "name": "JASON-3",
   "intl": "2016-002A",
   "group": "resource",
   "gcat": {
    "class": "C",
    "category": "SCI/MET",
    "owner": "CNES/NOAA",
    "state": "F"
   },
   "omm": {
    "OBJECT_NAME": "JASON-3",
    "OBJECT_ID": "2016-002A",
    "EPOCH": "2026-06-20T10:04:56.977824",
    "MEAN_MOTION": 12.8762814,
    "ECCENTRICITY": 0.0008478,
    "INCLINATION": 66.0406,
    "RA_OF_ASC_NODE": 119.0381,
    "ARG_OF_PERICENTER": 272.6497,
    "MEAN_ANOMALY": 87.3551,
    "EPHEMERIS_TYPE": 0,
    "CLASSIFICATION_TYPE": "U",
    "NORAD_CAT_ID": 41240,
    "ELEMENT_SET_NO": 999,
    "REV_AT_EPOCH": 48766,
    "BSTAR": 0.000096061,
    "MEAN_MOTION_DOT": -3.8e-7,
    "MEAN_MOTION_DDOT": 0
   }
  },
  {
   "norad": 39731,
   "name": "KAZEOSAT 1",
   "intl": "2014-024A",
   "group": "resource",
   "gcat": {
    "class": "C",
    "category": "IMG",
    "owner": "KAZK",
    "state": "KZ"
   },
   "omm": {
    "OBJECT_NAME": "KAZEOSAT 1",
    "OBJECT_ID": "2014-024A",
    "EPOCH": "2026-06-21T12:45:38.134368",
    "MEAN_MOTION": 14.42082456,
    "ECCENTRICITY": 0.0001291,
    "INCLINATION": 98.32,
    "RA_OF_ASC_NODE": 244.8715,
    "ARG_OF_PERICENTER": 77.1135,
    "MEAN_ANOMALY": 283.0199,
    "EPHEMERIS_TYPE": 0,
    "CLASSIFICATION_TYPE": "U",
    "NORAD_CAT_ID": 39731,
    "ELEMENT_SET_NO": 999,
    "REV_AT_EPOCH": 63918,
    "BSTAR": 0.00013252,
    "MEAN_MOTION_DOT": 0.00000393,
    "MEAN_MOTION_DDOT": 0
   }
  },
  {
   "norad": 40010,
   "name": "KAZEOSAT 2",
   "intl": "2014-033A",
   "group": "resource",
   "gcat": {
    "class": "C",
    "category": "IMG",
    "owner": "KAZK",
    "state": "KZ"
   },
   "omm": {
    "OBJECT_NAME": "KAZEOSAT 2",
    "OBJECT_ID": "2014-033A",
    "EPOCH": "2026-06-21T12:59:10.149216",
    "MEAN_MOTION": 14.85473699,
    "ECCENTRICITY": 0.0007483,
    "INCLINATION": 97.5407,
    "RA_OF_ASC_NODE": 11.9225,
    "ARG_OF_PERICENTER": 313.6499,
    "MEAN_ANOMALY": 46.4096,
    "EPHEMERIS_TYPE": 0,
    "CLASSIFICATION_TYPE": "U",
    "NORAD_CAT_ID": 40010,
    "ELEMENT_SET_NO": 999,
    "REV_AT_EPOCH": 64960,
    "BSTAR": 0.000018924,
    "MEAN_MOTION_DOT": 0.00000113,
    "MEAN_MOTION_DDOT": 0
   }
  }
 ]
}
